{
  "norad_id": 51718,
  "name": "STARLINK-3546",
  "history": [
    {
      "epoch": "2026-03-28T20:33:51.206688",
      "apogee_km": 519.122899959194,
      "perigee_km": 516.3218018908474,
      "latitude_deg": 53.210639818149694,
      "longitude_deg": 154.05689632007852,
      "semi_major_axis_km": 6895.85935092502,
      "eccentricity": 0.0002031,
      "inclination_deg": 53.2125,
      "raan_deg": 239.4628,
      "arg_perigee_deg": 0.8106,
      "mean_anomaly_deg": 359.2892,
      "mean_motion_rev_day": 15.16073196
    }
  ]
}