{"fetched_at":"2026-03-30T09:12:31Z","count":15922,"tles":[{"name":"STARLINK-3546","line1":"1 51718U 22016E   26087.85684267  .00012470  00000+0  65505-3 0  9999","line2":"2 51718  53.2125 239.4628 0002031   0.8106 359.2892 15.16073196227498","category":"Starlink"}]}